OBJECT_NAME,OBJECT_ID,EPOCH,MEAN_MOTION,ECCENTRICITY,INCLINATION,RA_OF_ASC_NODE,ARG_OF_PERICENTER,MEAN_ANOMALY,EPHEMERIS_TYPE,CLASSIFICATION_TYPE,NORAD_CAT_ID,ELEMENT_SET_NO,REV_AT_EPOCH,BSTAR,MEAN_MOTION_DOT,MEAN_MOTION_DDOT
GEISAT PRECURSOR,2023-084C,2026-07-20T15:55:20.722656,15.35055811,.00049516,97.6264,343.7366,207.5991,152.4989,0,U,56934,999,17266,.13904308E-3,.4645E-4,0
NUSAT-40 (C SHOEMAKER),2023-084M,2026-07-20T15:50:32.717760,15.83574792,.00035802,97.4877,351.0200,179.5122,180.6151,0,U,56943,999,17409,.53348069E-3,.117571E-2,0
NUSAT-41 (C PAYNE-G),2023-084N,2026-07-20T14:39:13.525344,15.29986326,.00074527,97.5557,338.8695,189.1144,170.9962,0,U,56944,999,17289,.24011122E-3,.6896E-4,0
GREGOIRE,2023-084Q,2026-07-20T09:05:48.311232,15.38839499,.0006071,97.6282,346.5675,184.3034,175.8159,0,U,56946,999,17281,.13320946E-3,.503E-4,0
BLACKJACK ACES-3,2023-084U,2026-07-20T09:05:37.802400,15.18817538,.00011828,97.6251,336.8362,197.6715,162.4478,0,U,56950,999,17220,.15018262E-3,.3055E-4,0
RUNNER-1 (TYVAK-1005),2023-084X,2026-07-20T09:04:35.730912,15.38286219,.00079848,97.6281,344.7592,185.1013,175.0151,0,U,56953,999,17270,.16759621E-3,.624E-4,0
BLACKJACK ACES-2,2023-084Z,2026-07-20T09:14:26.404512,15.18772492,.00019104,97.6249,336.9258,133.0343,227.1051,0,U,56955,999,17221,.19729323E-3,.4031E-4,0
BLACKJACK ACES-1,2023-084AA,2026-07-20T08:56:23.122176,15.18777009,.00022119,97.6238,336.6842,113.3833,246.7634,0,U,56956,999,12193,.184689E-3,.3769E-4,0
ION SCV-011,2023-084AB,2026-07-20T12:11:30.292800,15.29127969,.00058043,98.1385,31.8826,283.2570,76.8020,0,U,56957,999,17090,.11154648E-3,.3065E-4,0
GHOST-3,2023-084AC,2026-07-20T09:07:30.234720,15.48906622,.00071116,97.6257,351.7661,167.8418,192.3005,0,U,56958,999,17315,.22540005E-3,.12071E-3,0
ORBITER SN3,2023-084AE,2026-07-20T15:18:35.798112,15.35064674,.00073397,97.6313,343.5988,202.9090,157.1826,0,U,56960,999,17262,.14465827E-3,.4839E-4,0
ICEYE-X25,2023-084AH,2026-07-20T13:35:49.118208,15.63041980,.00046221,97.5920,350.1977,168.1209,192.0159,0,U,56963,999,17318,.21469299E-3,.19397E-3,0
AFR-1,2023-084AJ,2026-07-20T14:46:27.771744,15.28804854,.00096575,97.6315,339.1254,213.8139,146.2485,0,U,56964,999,17233,.10713875E-3,.2922E-4,0
NUSAT-42 (M WONENBURGER),2023-084AL,2026-07-20T15:03:05.987232,15.46654522,.00068876,97.5758,347.1897,129.6348,230.5510,0,U,56966,999,17324,.29904111E-3,.14844E-3,0
LEMUR-2-EMBRIONOVIS,2023-084AQ,2026-07-20T09:12:56.519136,15.38313202,.00087238,97.6331,346.8847,187.4663,172.6453,0,U,56970,999,17278,.21304571E-3,.7966E-4,0
AAC-HSI-SAT2,2023-084BX,2026-07-20T13:51:33.673248,15.20656179,.0013487,97.8292,353.0885,72.7649,287.5060,0,U,56995,999,17141,.88548535E-4,.1872E-4,0
AAC-AIS-SAT2,2023-084BY,2026-07-20T15:17:38.552928,14.85646376,.00562504,98.1524,342.3245,350.5010,9.5136,0,U,56996,999,15834,.13266027E-3,.1121E-4,0
2023-085A,2023-085A,2026-07-20T13:30:28.831680,15.31212513,.00052438,97.4979,311.9193,265.9457,94.1185,0,U,57004,999,17167,.23992548E-3,.7157E-4,0
2023-085J,2023-085J,2026-07-20T14:30:10.531584,15.35327307,.00042893,97.4961,314.6308,271.7989,88.2763,0,U,57012,999,17189,.26877134E-3,.9142E-4,0
2023-085L,2023-085L,2026-07-20T13:59:08.696256,15.32459515,.00030261,97.4984,312.7837,282.7577,77.3326,0,U,57014,999,17173,.25697069E-3,.7975E-4,0
2023-085V,2023-085V,2026-07-20T13:34:54.786432,15.34447278,.00040015,97.4970,313.6901,319.0515,41.0426,0,U,57023,999,17181,.25963491E-3,.8583E-4,0
2023-085Y,2023-085Y,2026-07-20T13:36:48.571776,15.36551338,.00036513,97.4986,315.5508,308.2721,51.8194,0,U,57026,999,17194,.27174804E-3,.9614E-4,0
2023-085AD,2023-085AD,2026-07-20T14:17:18.225312,15.35712875,.00068266,97.4974,314.7967,325.9656,34.1148,0,U,57031,999,17190,.26914182E-3,.9272E-4,0
2023-085AJ,2023-085AJ,2026-07-20T13:21:09.273312,15.18447293,.0005522,97.4890,306.7411,334.9913,25.1052,0,U,57036,999,17138,.16908654E-3,.3415E-4,0
2023-085AK,2023-085AK,2026-07-20T13:15:09.483840,15.18282819,.00055806,97.4881,306.5910,3.1430,356.9838,0,U,57037,999,17137,.16463383E-3,.3307E-4,0
2023-085AL,2023-085AL,2026-07-20T13:18:42.413184,15.35775269,.00050738,97.4972,314.5257,328.1978,31.8958,0,U,57038,999,17187,.26264624E-3,.9062E-4,0
2023-085AS,2023-085AS,2026-07-20T13:14:55.692672,15.37633721,.00053376,97.4944,315.6774,329.6501,30.4434,0,U,57044,999,17197,.26537524E-3,.9724E-4,0
NUSANTARA TIGA (SATRIA),2023-086A,2026-07-20T14:34:38.605728,1.00269273,.00021697,0.0359,12.5020,318.1052,332.4344,0,U,57045,999,1009,0,-.236E-5,0
SHIYAN-25 (SY-25),2023-087A,2026-07-20T14:30:00.029664,16.00989254,.00126639,96.8453,264.7536,213.9697,146.0774,0,U,57047,999,18014,.12600748E-3,.67572E-3,.3869291E-5
STARLINK-5850,2023-088B,2026-07-20T09:22:25.544352,15.27577172,.00014777,43.0058,81.5570,267.3516,92.7167,0,U,57049,999,17081,.37837664E-4,.779E-5,0
