GEISAT PRECURSOR        
1 56934U 23084C   26201.66343429  .00004645  00000+0  13904-3 0  9990
2 56934  97.6264 343.7366 0004951 207.5991 152.4989 15.35055811172661
NUSAT-40 (C SHOEMAKER)  
1 56943U 23084M   26201.66010090  .00117571  00000+0  53348-3 0  9994
2 56943  97.4877 351.0200 0003580 179.5122 180.6151 15.83574792174099
NUSAT-41 (C PAYNE-G)    
1 56944U 23084N   26201.61057321  .00006896  00000+0  24011-3 0  9990
2 56944  97.5557 338.8695 0007452 189.1144 170.9962 15.29986326172898
GREGOIRE                
1 56946U 23084Q   26201.37903138  .00005030  00000+0  13321-3 0  9992
2 56946  97.6282 346.5675 0006071 184.3034 175.8159 15.38839499172813
BLACKJACK ACES-3        
1 56950U 23084U   26201.37890975  .00003055  00000+0  15018-3 0  9991
2 56950  97.6251 336.8362 0001182 197.6715 162.4478 15.18817538172207
RUNNER-1 (TYVAK-1005)   
1 56953U 23084X   26201.37819133  .00006240  00000+0  16760-3 0  9995
2 56953  97.6281 344.7592 0007984 185.1013 175.0151 15.38286219172706
BLACKJACK ACES-2        
1 56955U 23084Z   26201.38502783  .00004031  00000+0  19729-3 0  9992
2 56955  97.6249 336.9258 0001910 133.0343 227.1051 15.18772492172210
BLACKJACK ACES-1        
1 56956U 23084AA  26201.37248984  .00003769  00000+0  18469-3 0  9999
2 56956  97.6238 336.6842 0002211 113.3833 246.7634 15.18777009121931
ION SCV-011             
1 56957U 23084AB  26201.50798950  .00003065  00000+0  11155-3 0  9992
2 56957  98.1385  31.8826 0005804 283.2570  76.8020 15.29127969170901
GHOST-3                 
1 56958U 23084AC  26201.38021105  .00012071  00000+0  22540-3 0  9997
2 56958  97.6257 351.7661 0007111 167.8418 192.3005 15.48906622173155
ORBITER SN3             
1 56960U 23084AE  26201.63791433  .00004839  00000+0  14466-3 0  9997
2 56960  97.6313 343.5988 0007339 202.9090 157.1826 15.35064674172620
ICEYE-X25               
1 56963U 23084AH  26201.56654072  .00019397  00000+0  21469-3 0  9995
2 56963  97.5920 350.1977 0004622 168.1209 192.0159 15.63041980173180
AFR-1                   
1 56964U 23084AJ  26201.61559921  .00002922  00000+0  10714-3 0  9996
2 56964  97.6315 339.1254 0009657 213.8139 146.2485 15.28804854172335
NUSAT-42 (M WONENBURGER)
1 56966U 23084AL  26201.62715263  .00014844  00000+0  29904-3 0  9999
2 56966  97.5758 347.1897 0006887 129.6348 230.5510 15.46654522173249
LEMUR-2-EMBRIONOVIS     
1 56970U 23084AQ  26201.38398749  .00007966  00000+0  21305-3 0  9997
2 56970  97.6331 346.8847 0008723 187.4663 172.6453 15.38313202172784
AAC-HSI-SAT2            
1 56995U 23084BX  26201.57747307  .00001872  00000+0  88549-4 0  9997
2 56995  97.8292 353.0885 0013487  72.7649 287.5060 15.20656179171417
AAC-AIS-SAT2            
1 56996U 23084BY  26201.63725177  .00001121  00000+0  13266-3 0  9996
2 56996  98.1524 342.3245 0056250 350.5010   9.5136 14.85646376158346
2023-085A               
1 57004U 23085A   26201.56283370  .00007157  00000+0  23993-3 0  9997
2 57004  97.4979 311.9193 0005243 265.9457  94.1185 15.31212513171676
2023-085J               
1 57012U 23085J   26201.60428856  .00009142  00000+0  26877-3 0  9991
2 57012  97.4961 314.6308 0004289 271.7989  88.2763 15.35327307171890
2023-085L               
1 57014U 23085L   26201.58273954  .00007975  00000+0  25697-3 0  9998
2 57014  97.4984 312.7837 0003026 282.7577  77.3326 15.32459515171737
2023-085V               
1 57023U 23085V   26201.56591188  .00008583  00000+0  25963-3 0  9990
2 57023  97.4970 313.6901 0004001 319.0515  41.0426 15.34447278171817
2023-085Y               
1 57026U 23085Y   26201.56722884  .00009614  00000+0  27175-3 0  9995
2 57026  97.4986 315.5508 0003651 308.2721  51.8194 15.36551338171940
2023-085AD              
1 57031U 23085AD  26201.59534983  .00009272  00000+0  26914-3 0  9995
2 57031  97.4974 314.7967 0006826 325.9656  34.1148 15.35712875171906
2023-085AJ              
1 57036U 23085AJ  26201.55635733  .00003415  00000+0  16909-3 0  9997
2 57036  97.4890 306.7411 0005522 334.9913  25.1052 15.18447293171387
2023-085AK              
1 57037U 23085AK  26201.55219310  .00003307  00000+0  16463-3 0  9992
2 57037  97.4881 306.5910 0005580   3.1430 356.9838 15.18282819171370
2023-085AL              
1 57038U 23085AL  26201.55465756  .00009062  00000+0  26265-3 0  9995
2 57038  97.4972 314.5257 0005073 328.1978  31.8958 15.35775269171871
2023-085AS              
1 57044U 23085AS  26201.55203348  .00009724  00000+0  26538-3 0  9997
2 57044  97.4944 315.6774 0005337 329.6501  30.4434 15.37633721171977
NUSANTARA TIGA (SATRIA) 
1 57045U 23086A   26201.60739127 -.00000236  00000+0  00000+0 0  9996
2 57045   0.0359  12.5020 0002169 318.1052 332.4344  1.00269273 10091
SHIYAN-25 (SY-25)       
1 57047U 23087A   26201.60416701  .00067572  38693-5  12601-3 0  9993
2 57047  96.8453 264.7536 0012663 213.9697 146.0774 16.00989254180145
STARLINK-5850           
1 57049U 23088B   26201.39057343  .00000779  00000+0  37838-4 0  9996
2 57049  43.0058  81.5570 0001477 267.3516  92.7167 15.27577172170815
